ONEWEB-0665             
1 55825U 23029AF  24227.57115725 -.00000119  00000+0 -35530-3 0  9992
2 55825  87.8923  63.3084 0001505  78.2696 281.8602 13.14502512 71174
ONEWEB-0666             
1 55826U 23029AG  24227.52544903  .00000160  00000+0  36161-3 0  9997
2 55826  87.9188  48.0843 0002235  91.7557 268.3832 13.20772179 72495
ONEWEB-0667             
1 55827U 23029AH  24227.51912455  .00000180  00000+0  41013-3 0  9992
2 55827  87.9189  48.0188 0001664  79.9628 280.1693 13.20773436 72484
ONEWEB-0669             
1 55828U 23029AJ  24227.59016041  .00000152  00000+0  34112-3 0  9998
2 55828  87.9188  48.0419 0002482  79.7331 280.4082 13.20772887 72494
ONEWEB-0670             
1 55829U 23029AK  24227.54896822  .00000259  00000+0  66426-3 0  9998
2 55829  87.8927  63.3206 0001664  69.0828 291.0480 13.14504646 71198
ONEWEB-0671             
1 55830U 23029AL  24227.55416557  .00000100  00000+0  21657-3 0  9996
2 55830  87.9099  78.6032 0001657  75.4365 284.6952 13.19726221 70311
ONEWEB-0672             
1 55831U 23029AM  24227.50967441  .00000116  00000+0  25385-3 0  9994
2 55831  87.9188  48.0421 0002101  93.2640 266.8734 13.20773547 72488
ONEWEB-0673             
1 55832U 23029AN  24227.83374139  .00000118  00000+0  26319-3 0  9997
2 55832  87.9102  78.5137 0001618  77.0545 283.0768 13.19724912 71064
